{
  "type": "FeatureCollection",
  "features": [
    {
      "type": "Feature",
      "properties": {
        "norad_id": 30299,
        "name": "FENGYUN 1C DEB",
        "group": "fengyun-1c-debris",
        "lat": 55.344657681407966,
        "lon": -101.95826774645587,
        "alt_km": 910.7809707062179,
        "timestamp": "2025-12-18T08:58:43.686931+00:00",
        "meta_object_name": "FENGYUN 1C DEB",
        "meta_object_id": "1999-025ZL",
        "meta_epoch": "2025-12-17T17:38:01.031424",
        "meta_mean_motion": 14.07772325,
        "meta_eccentricity": 0.01030636,
        "meta_inclination": 99.0945,
        "meta_ra_of_asc_node": 64.0002,
        "meta_arg_of_pericenter": 353.7526,
        "meta_mean_anomaly": 130.2873,
        "meta_ephemeris_type": 0,
        "meta_classification_type": "U",
        "meta_norad_cat_id": 30299,
        "meta_element_set_no": 999,
        "meta_rev_at_epoch": 96360,
        "meta_bstar": 0.0012467592,
        "meta_mean_motion_dot": 2.171e-05,
        "meta_mean_motion_ddot": 0,
        "tle_line1": "1 30299U 99025ZL  25351.73473416  .00002171  00000+0  12468-2 0  9992",
        "tle_line2": "2 30299  99.0945  64.0002 0103063 353.7526 130.2873 14.07772325963603"
      },
      "geometry": {
        "type": "Point",
        "coordinates": [
          -101.95826774645587,
          55.344657681407966
        ]
      }
    },
    {
      "type": "Feature",
      "properties": {
        "norad_id": 30300,
        "name": "FENGYUN 1C DEB",
        "group": "fengyun-1c-debris",
        "lat": -36.67273776810901,
        "lon": 68.70949167063748,
        "alt_km": 769.9298986766244,
        "timestamp": "2025-12-18T08:58:43.686942+00:00",
        "meta_object_name": "FENGYUN 1C DEB",
        "meta_object_id": "1999-025ZM",
        "meta_epoch": "2025-12-15T03:52:20.538912",
        "meta_mean_motion": 14.26864411,
        "meta_eccentricity": 0.0075516,
        "meta_inclination": 99.0411,
        "meta_ra_of_asc_node": 58.582,
        "meta_arg_of_pericenter": 287.1003,
        "meta_mean_anomaly": 101.2443,
        "meta_ephemeris_type": 0,
        "meta_classification_type": "U",
        "meta_norad_cat_id": 30300,
        "meta_element_set_no": 999,
        "meta_rev_at_epoch": 97019,
        "meta_bstar": 0.0014788894,
        "meta_mean_motion_dot": 3.652e-05,
        "meta_mean_motion_ddot": 0,
        "tle_line1": "1 30300U 99025ZM  25349.16134883  .00003652  00000+0  14789-2 0  9994",
        "tle_line2": "2 30300  99.0411  58.5820 0075516 287.1003 101.2443 14.26864411970193"
      },
      "geometry": {
        "type": "Point",
        "coordinates": [
          68.70949167063748,
          -36.67273776810901
        ]
      }
    },
    {
      "type": "Feature",
      "properties": {
        "norad_id": 30301,
        "name": "FENGYUN 1C DEB",
        "group": "fengyun-1c-debris",
        "lat": -65.79230829207312,
        "lon": 163.41613929333383,
        "alt_km": 676.5325946199155,
        "timestamp": "2025-12-18T08:58:43.686952+00:00",
        "meta_object_name": "FENGYUN 1C DEB",
        "meta_object_id": "1999-025ZN",
        "meta_epoch": "2025-12-17T16:49:34.677120",
        "meta_mean_motion": 14.53149345,
        "meta_eccentricity": 0.00691049,
        "meta_inclination": 98.6344,
        "meta_ra_of_asc_node": 142.9692,
        "meta_arg_of_pericenter": 274.4441,
        "meta_mean_anomaly": 99.2622,
        "meta_ephemeris_type": 0,
        "meta_classification_type": "U",
        "meta_norad_cat_id": 30301,
        "meta_element_set_no": 999,
        "meta_rev_at_epoch": 97289,
        "meta_bstar": 0.003103171,
        "meta_mean_motion_dot": 0.00013228,
        "meta_mean_motion_ddot": 0,
        "tle_line1": "1 30301U 99025ZN  25351.70109580  .00013228  00000+0  31032-2 0  9994",
        "tle_line2": "2 30301  98.6344 142.9692 0069104 274.4441  99.2622 14.53149345972896"
      },
      "geometry": {
        "type": "Point",
        "coordinates": [
          163.41613929333383,
          -65.79230829207312
        ]
      }
    },
    {
      "type": "Feature",
      "properties": {
        "norad_id": 30302,
        "name": "FENGYUN 1C DEB",
        "group": "fengyun-1c-debris",
        "lat": -56.19405901464769,
        "lon": -87.18802484478749,
        "alt_km": 927.308769788202,
        "timestamp": "2025-12-18T08:58:43.686962+00:00",
        "meta_object_name": "FENGYUN 1C DEB",
        "meta_object_id": "1999-025ZP",
        "meta_epoch": "2025-12-17T11:09:24.659136",
        "meta_mean_motion": 14.12841545,
        "meta_eccentricity": 0.01051651,
        "meta_inclination": 98.5538,
        "meta_ra_of_asc_node": 258.9537,
        "meta_arg_of_pericenter": 104.024,
        "meta_mean_anomaly": 257.2651,
        "meta_ephemeris_type": 0,
        "meta_classification_type": "U",
        "meta_norad_cat_id": 30302,
        "meta_element_set_no": 999,
        "meta_rev_at_epoch": 96110,
        "meta_bstar": 0.0017730793,
        "meta_mean_motion_dot": 3.435e-05,
        "meta_mean_motion_ddot": 0,
        "tle_line1": "1 30302U 99025ZP  25351.46486874  .00003435  00000+0  17731-2 0  9991",
        "tle_line2": "2 30302  98.5538 258.9537 0105165 104.0240 257.2651 14.12841545961106"
      },
      "geometry": {
        "type": "Point",
        "coordinates": [
          -87.18802484478749,
          -56.19405901464769
        ]
      }
    },
    {
      "type": "Feature",
      "properties": {
        "norad_id": 30303,
        "name": "FENGYUN 1C DEB",
        "group": "fengyun-1c-debris",
        "lat": 28.41853713593557,
        "lon": -105.22880774355153,
        "alt_km": 827.1964553713306,
        "timestamp": "2025-12-18T08:58:43.686972+00:00",
        "meta_object_name": "FENGYUN 1C DEB",
        "meta_object_id": "1999-025ZQ",
        "meta_epoch": "2025-12-17T03:38:05.064000",
        "meta_mean_motion": 14.25876467,
        "meta_eccentricity": 0.00767505,
        "meta_inclination": 99.0204,
        "meta_ra_of_asc_node": 68.5822,
        "meta_arg_of_pericenter": 269.7011,
        "meta_mean_anomaly": 89.5373,
        "meta_ephemeris_type": 0,
        "meta_classification_type": "U",
        "meta_norad_cat_id": 30303,
        "meta_element_set_no": 999,
        "meta_rev_at_epoch": 97098,
        "meta_bstar": 0.0019789963,
        "meta_mean_motion_dot": 4.814e-05,
        "meta_mean_motion_ddot": 0,
        "tle_line1": "1 30303U 99025ZQ  25351.15144750  .00004814  00000+0  19790-2 0  9991",
        "tle_line2": "2 30303  99.0204  68.5822 0076750 269.7011  89.5373 14.25876467970985"
      },
      "geometry": {
        "type": "Point",
        "coordinates": [
          -105.22880774355153,
          28.41853713593557
        ]
      }
    },
    {
      "type": "Feature",
      "properties": {
        "norad_id": 30304,
        "name": "FENGYUN 1C DEB",
        "group": "fengyun-1c-debris",
        "lat": 76.07387227016095,
        "lon": -75.2159705888672,
        "alt_km": 812.7264135364276,
        "timestamp": "2025-12-18T08:58:43.686983+00:00",
        "meta_object_name": "FENGYUN 1C DEB",
        "meta_object_id": "1999-025ZR",
        "meta_epoch": "2025-12-16T03:55:18.649920",
        "meta_mean_motion": 14.1551294,
        "meta_eccentricity": 0.00735568,
        "meta_inclination": 99.0329,
        "meta_ra_of_asc_node": 62.6386,
        "meta_arg_of_pericenter": 39.2887,
        "meta_mean_anomaly": 321.3591,
        "meta_ephemeris_type": 0,
        "meta_classification_type": "U",
        "meta_norad_cat_id": 30304,
        "meta_element_set_no": 999,
        "meta_rev_at_epoch": 96867,
        "meta_bstar": 0.00095246667,
        "meta_mean_motion_dot": 1.865e-05,
        "meta_mean_motion_ddot": 0,
        "tle_line1": "1 30304U 99025ZR  25350.16341030  .00001865  00000+0  95247-3 0  9997",
        "tle_line2": "2 30304  99.0329  62.6386 0073556  39.2887 321.3591 14.15512940968670"
      },
      "geometry": {
        "type": "Point",
        "coordinates": [
          -75.2159705888672,
          76.07387227016095
        ]
      }
    },
    {
      "type": "Feature",
      "properties": {
        "norad_id": 30305,
        "name": "FENGYUN 1C DEB",
        "group": "fengyun-1c-debris",
        "lat": 28.674000871245223,
        "lon": 116.43017037190604,
        "alt_km": 944.3450824890242,
        "timestamp": "2025-12-18T08:58:43.686993+00:00",
        "meta_object_name": "FENGYUN 1C DEB",
        "meta_object_id": "1999-025ZS",
        "meta_epoch": "2025-12-17T18:17:35.896992",
        "meta_mean_motion": 13.6023285,
        "meta_eccentricity": 0.02658118,
        "meta_inclination": 98.588,
        "meta_ra_of_asc_node": 291.1518,
        "meta_arg_of_pericenter": 87.9745,
        "meta_mean_anomaly": 305.4212,
        "meta_ephemeris_type": 0,
        "meta_classification_type": "U",
        "meta_norad_cat_id": 30305,
        "meta_element_set_no": 999,
        "meta_rev_at_epoch": 93842,
        "meta_bstar": 0.00026985063,
        "meta_mean_motion_dot": 2.21e-06,
        "meta_mean_motion_ddot": 0,
        "tle_line1": "1 30305U 99025ZS  25351.76222103  .00000221  00000+0  26985-3 0  9992",
        "tle_line2": "2 30305  98.5880 291.1518 0265811  87.9745 305.4212 13.60232850938424"
      },
      "geometry": {
        "type": "Point",
        "coordinates": [
          116.43017037190604,
          28.674000871245223
        ]
      }
    }
  ]
}